OBJECT_NAME,OBJECT_ID,EPOCH,MEAN_MOTION,ECCENTRICITY,INCLINATION,RA_OF_ASC_NODE,ARG_OF_PERICENTER,MEAN_ANOMALY,EPHEMERIS_TYPE,CLASSIFICATION_TYPE,NORAD_CAT_ID,ELEMENT_SET_NO,REV_AT_EPOCH,BSTAR,MEAN_MOTION_DOT,MEAN_MOTION_DDOT
ISS (ZARYA),1998-067A,2023-12-09T01:51:40.444416,15.50296263,.0001365,51.6400,182.2887,15.2823,127.3497,0,U,25544,999,42891,.46764E-3,.26603E-3,0
ISS (ZARYA),1998-067A,2023-12-09T08:59:03.021792,15.50286576,.000143,51.6390,180.8193,15.4287,344.6745,0,U,25544,999,42896,.16301E-3,.8952E-4,0
ISS (ZARYA),1998-067A,2023-12-09T14:02:33.676800,15.50295972,.0001217,51.6398,179.7719,23.6641,73.5536,0,U,25544,999,42899,.19748E-3,.10948E-3,0
ISS (ZARYA),1998-067A,2023-12-09T23:33:34.241184,15.50302936,.0001276,51.6394,177.8056,21.5596,130.2037,0,U,25544,999,42905,.19015E-3,.10527E-3,0
ISS (ZARYA),1998-067A,2023-12-10T00:53:33.772416,15.50299595,.0001402,51.6401,177.5300,21.5999,80.3927,0,U,25544,999,42906,.14724E-3,.8045E-4,0
ISS (ZARYA),1998-067A,2023-12-10T09:44:14.051616,15.50306931,.0001428,51.6385,175.7070,16.8051,343.2985,0,U,25544,999,42912,.16004E-3,.8787E-4,0
ISS (ZARYA),1998-067A,2023-12-10T10:02:13.806240,15.50322923,.0001536,51.6400,175.6413,28.3289,41.5814,0,U,25544,999,42912,.41846E-3,.23771E-3,0
ISS (ZARYA),1998-067A,2023-12-10T13:14:29.429664,15.50313898,.000135,51.6394,174.9779,22.4129,73.1463,0,U,25544,999,42914,.18492E-3,.10228E-3,0
ISS (ZARYA),1998-067A,2023-12-10T19:01:10.398144,15.50313905,.0001397,51.6381,173.7899,20.1358,339.9686,0,U,25544,999,42918,.15335E-3,.8403E-4,0
ISS (ZARYA),1998-067A,2023-12-11T00:05:19.681728,15.50320011,.0001393,51.6402,172.7364,16.7918,82.9368,0,U,25544,999,42921,.17741E-3,.9797E-4,0
ISS (ZARYA),1998-067A,2023-12-11T12:02:13.381728,15.50327056,.0001583,51.6378,170.2756,20.6159,339.4894,0,U,25544,999,42928,.15264E-3,.8365E-4,0
ISS (ZARYA),1998-067A,2023-12-11T12:26:53.787840,15.50331619,.0001017,51.6401,170.1832,37.0320,58.7854,0,U,25544,999,42929,.17731E-3,.9795E-4,0
ISS (ZARYA),1998-067A,2023-12-12T01:02:10.842720,15.50340139,.0000962,51.6405,167.5830,42.0496,103.0569,0,U,25544,999,42937,.17006E-3,.9378E-4,0
ISS (ZARYA),1998-067A,2023-12-12T11:38:13.841952,15.50347832,.0001556,51.6403,165.3999,25.8245,66.1371,0,U,25544,999,42944,.17435E-3,.9629E-4,0
ISS (ZARYA),1998-067A,2023-12-12T13:13:40.499616,15.50348626,.0001062,51.6390,165.0639,36.5290,65.6167,0,U,25544,999,42945,.16619E-3,.9157E-4,0
ISS (ZARYA),1998-067A,2023-12-12T16:17:51.533952,15.50349770,.0001234,51.6402,164.4314,45.5486,50.9340,0,U,25544,999,42947,.16188E-3,.8908E-4,0
ISS (ZARYA),1998-067A,2023-12-13T00:13:43.294368,15.50354268,.0001508,51.6401,162.7943,31.8398,110.2398,0,U,25544,999,42952,.15581E-3,.8557E-4,0
ISS (ZARYA),1998-067A,2023-12-13T11:59:40.720704,15.50367583,.0001594,51.6378,160.3694,26.3668,333.7402,0,U,25544,999,42959,.21055E-3,.11735E-3,0
ISS (ZARYA),1998-067A,2023-12-13T12:12:10.284768,15.50368084,.000181,51.6399,160.3272,32.8388,15.7236,0,U,25544,999,42960,.188E-3,.10427E-3,0
ISS (ZARYA),1998-067A,2023-12-13T12:24:33.969312,15.50367148,.000175,51.6405,160.2818,29.8322,66.8036,0,U,25544,999,42960,.17956E-3,.9938E-4,0
ISS (ZARYA),1998-067A,2023-12-13T17:05:31.931232,15.50370303,.0001811,51.6394,159.3176,33.2253,73.1265,0,U,25544,999,42963,.17772E-3,.9832E-4,0
ISS (ZARYA),1998-067A,2023-12-13T23:24:40.456800,15.50377164,.0001827,51.6397,158.0105,32.3380,104.5191,0,U,25544,999,42967,.18476E-3,.10243E-3,0
ISS (ZARYA),1998-067A,2023-12-13T23:24:40.456800,15.50380628,.0001904,51.6391,158.0112,31.5177,105.3410,0,U,25544,999,42967,.22133E-3,.12365E-3,0
ISS (ZARYA),1998-067A,2023-12-14T08:24:11.124000,15.50391551,.0001952,51.6390,156.1528,31.7296,37.6397,0,U,25544,999,42973,.23017E-3,.12884E-3,0
ISS (ZARYA),1998-067A,2023-12-14T09:39:08.870400,15.50389932,.0001737,51.6381,155.8964,27.3324,332.7756,0,U,25544,999,42974,.21808E-3,.12181E-3,0
ISS (ZARYA),1998-067A,2023-12-14T13:12:41.407200,15.50387276,.0002034,51.6405,155.1513,26.8564,81.4798,0,U,25544,999,42976,.16838E-3,.9297E-4,0
ISS (ZARYA),1998-067A,2023-12-14T19:15:27.076608,15.50399815,.0002239,51.6405,153.9062,25.0767,50.2515,0,U,25544,999,42980,.21186E-3,.11825E-3,0
ISS (ZARYA),1998-067A,2023-12-14T22:27:12.448800,15.50397707,.0002046,51.6406,153.2443,30.5165,68.5474,0,U,25544,999,42982,.17825E-3,.9873E-4,0
ISS (ZARYA),1998-067A,2023-12-15T05:42:07.999776,15.50422841,.000226,51.6422,151.7482,30.8955,315.0781,0,U,25544,999,42986,.407E-3,.2319E-3,0
ISS (ZARYA),1998-067A,2023-12-15T09:12:44.498304,15.50428682,.0002072,51.6414,151.0242,34.3439,48.5014,0,U,25544,999,42989,.39396E-3,.22434E-3,0
