1 25544U 98067A   23343.07755144  .00026603  00000+0  46764-3 0  9994
2 25544  51.6400 182.2887 0001365  15.2823 127.3497 15.50296263428916
1 25544U 98067A   23343.37434053  .00008952  00000+0  16301-3 0  9991
2 25544  51.6390 180.8193 0001430  15.4287 344.6745 15.50286576428968
1 25544U 98067A   23343.58511200  .00010948  00000+0  19748-3 0  9990
2 25544  51.6398 179.7719 0001217  23.6641  73.5536 15.50295972428994
1 25544U 98067A   23343.98164631  .00010527  00000+0  19015-3 0  9996
2 25544  51.6394 177.8056 0001276  21.5596 130.2037 15.50302936429058
1 25544U 98067A   23344.03719644  .00008045  00000+0  14724-3 0  9997
2 25544  51.6401 177.5300 0001402  21.5999  80.3927 15.50299595429064
1 25544U 98067A   23344.40571819  .00008787  00000+0  16004-3 0  9994
2 25544  51.6385 175.7070 0001428  16.8051 343.2985 15.50306931429128
1 25544U 98067A   23344.41821535  .00023771  00000+0  41846-3 0  9990
2 25544  51.6400 175.6413 0001536  28.3289  41.5814 15.50322923429125
1 25544U 98067A   23344.55172951  .00010228  00000+0  18492-3 0  9990
2 25544  51.6394 174.9779 0001350  22.4129  73.1463 15.50313898429140
1 25544U 98067A   23344.79248146  .00008403  00000+0  15335-3 0  9991
2 25544  51.6381 173.7899 0001397  20.1358 339.9686 15.50313905429189
1 25544U 98067A   23345.00370002  .00009797  00000+0  17741-3 0  9993
2 25544  51.6402 172.7364 0001393  16.7918  82.9368 15.50320011429210
1 25544U 98067A   23345.50154377  .00008365  00000+0  15264-3 0  9991
2 25544  51.6378 170.2756 0001583  20.6159 339.4894 15.50327056429289
1 25544U 98067A   23345.51867810  .00009795  00000+0  17731-3 0  9994
2 25544  51.6401 170.1832 0001017  37.0320  58.7854 15.50331619429292
1 25544U 98067A   23346.04318105  .00009378  00000+0  17006-3 0  9993
2 25544  51.6405 167.5830 0000962  42.0496 103.0569 15.50340139429375
1 25544U 98067A   23346.48488243  .00009629  00000+0  17435-3 0  9997
2 25544  51.6403 165.3999 0001556  25.8245  66.1371 15.50347832429441
1 25544U 98067A   23346.55116319  .00009157  00000+0  16619-3 0  9996
2 25544  51.6390 165.0639 0001062  36.5290  65.6167 15.50348626429455
1 25544U 98067A   23346.67906868  .00008908  00000+0  16188-3 0  9999
2 25544  51.6402 164.4314 0001234  45.5486  50.9340 15.50349770429473
1 25544U 98067A   23347.00952887  .00008557  00000+0  15581-3 0  9995
2 25544  51.6401 162.7943 0001508  31.8398 110.2398 15.50354268429522
1 25544U 98067A   23347.49977686  .00011735  00000+0  21055-3 0  9997
2 25544  51.6378 160.3694 0001594  26.3668 333.7402 15.50367583429595
1 25544U 98067A   23347.50845237  .00010427  00000+0  18800-3 0  9996
2 25544  51.6399 160.3272 0001810  32.8388  15.7236 15.50368084429603
1 25544U 98067A   23347.51705983  .00009938  00000+0  17956-3 0  9996
2 25544  51.6405 160.2818 0001750  29.8322  66.8036 15.50367148429608
1 25544U 98067A   23347.71217513  .00009832  00000+0  17772-3 0  9994
2 25544  51.6394 159.3176 0001811  33.2253  73.1265 15.50370303429636
1 25544U 98067A   23347.97546825  .00010243  00000+0  18476-3 0  9993
2 25544  51.6397 158.0105 0001827  32.3380 104.5191 15.50377164429678
1 25544U 98067A   23347.97546825  .00012365  00000+0  22133-3 0  9995
2 25544  51.6391 158.0112 0001904  31.5177 105.3410 15.50380628429673
1 25544U 98067A   23348.35012875  .00012884  00000+0  23017-3 0  9999
2 25544  51.6390 156.1528 0001952  31.7296  37.6397 15.50391551429734
1 25544U 98067A   23348.40218600  .00012181  00000+0  21808-3 0  9995
2 25544  51.6381 155.8964 0001737  27.3324 332.7756 15.50389932429747
1 25544U 98067A   23348.55047925  .00009297  00000+0  16838-3 0  9992
2 25544  51.6405 155.1513 0002034  26.8564  81.4798 15.50387276429763
1 25544U 98067A   23348.80239672  .00011825  00000+0  21186-3 0  9994
2 25544  51.6405 153.9062 0002239  25.0767  50.2515 15.50399815429809
1 25544U 98067A   23348.93556075  .00009873  00000+0  17825-3 0  9992
2 25544  51.6406 153.2443 0002046  30.5165  68.5474 15.50397707429821
1 25544U 98067A   23349.23759259  .00023190  00000+0  40700-3 0  9991
2 25544  51.6422 151.7482 0002260  30.8955 315.0781 15.50422841429866
1 25544U 98067A   23349.38384836  .00022434  00000+0  39396-3 0  9991
2 25544  51.6414 151.0242 0002072  34.3439  48.5014 15.50428682429890
